[{"OBJECT_NAME":"CHECKMATE 10","OBJECT_ID":"2023-133F","EPOCH":"2026-03-09T14:36:16.908192","MEAN_MOTION":13.85465032,"ECCENTRICITY":0.0005039,"INCLINATION":80.9974,"RA_OF_ASC_NODE":103.0212,"ARG_OF_PERICENTER":278.4958,"MEAN_ANOMALY":81.5627,"EPHEMERIS_TYPE":0,"CLASSIFICATION_TYPE":"U","NORAD_CAT_ID":57762,"ELEMENT_SET_NO":999,"REV_AT_EPOCH":12724,"BSTAR":4.9049e-5,"MEAN_MOTION_DOT":6.7e-7,"MEAN_MOTION_DDOT":0},{"OBJECT_NAME":"CZ-6A DEB","OBJECT_ID":"2024-140PF","EPOCH":"2026-03-09T12:09:41.764896","MEAN_MOTION":13.38894787,"ECCENTRICITY":0.04395364,"INCLINATION":88.2744,"RA_OF_ASC_NODE":251.3916,"ARG_OF_PERICENTER":11.017,"MEAN_ANOMALY":350.0224,"EPHEMERIS_TYPE":0,"CLASSIFICATION_TYPE":"U","NORAD_CAT_ID":61113,"ELEMENT_SET_NO":999,"REV_AT_EPOCH":7549,"BSTAR":0.0003825614,"MEAN_MOTION_DOT":3.72e-6,"MEAN_MOTION_DDOT":0}]
